[
  {
    "OBJECT_NAME": "STARLINK-1258",
    "OBJECT_ID": "2020-019X",
    "EPOCH": "2025-06-28T05:26:36.647520",
    "MEAN_MOTION": 15.63384127,
    "ECCENTRICITY": 0.0002894,
    "INCLINATION": 53.052,
    "RA_OF_ASC_NODE": 197.3656,
    "ARG_OF_PERICENTER": 356.9333,
    "MEAN_ANOMALY": 3.1663,
    "EPHEMERIS_TYPE": 0,
    "CLASSIFICATION_TYPE": "U",
    "NORAD_CAT_ID": 45381,
    "ELEMENT_SET_NO": 999,
    "REV_AT_EPOCH": 29181,
    "BSTAR": 0.0010219,
    "MEAN_MOTION_DOT": 0.00096524,
    "MEAN_MOTION_DDOT": 0
  },
  {
    "OBJECT_NAME": "STARLINK-1266",
    "OBJECT_ID": "2020-019Z",
    "EPOCH": "2025-06-28T12:11:18.289248",
    "MEAN_MOTION": 15.06397504,
    "ECCENTRICITY": 0.0001306,
    "INCLINATION": 53.053,
    "RA_OF_ASC_NODE": 207.6852,
    "ARG_OF_PERICENTER": 89.1268,
    "MEAN_ANOMALY": 270.987,
    "EPHEMERIS_TYPE": 0,
    "CLASSIFICATION_TYPE": "U",
    "NORAD_CAT_ID": 45383,
    "ELEMENT_SET_NO": 999,
    "REV_AT_EPOCH": 29169,
    "BSTAR": 0.00011003,
    "MEAN_MOTION_DOT": 1.358e-05,
    "MEAN_MOTION_DDOT": 0
  },
  {
    "OBJECT_NAME": "STARLINK-1267",
    "OBJECT_ID": "2020-019AA",
    "EPOCH": "2025-06-28T11:50:09.959712",
    "MEAN_MOTION": 15.0639581,
    "ECCENTRICITY": 0.0001022,
    "INCLINATION": 53.0538,
    "RA_OF_ASC_NODE": 208.4074,
    "ARG_OF_PERICENTER": 78.429,
    "MEAN_ANOMALY": 281.6814,
    "EPHEMERIS_TYPE": 0,
    "CLASSIFICATION_TYPE": "U",
    "NORAD_CAT_ID": 45384,
    "ELEMENT_SET_NO": 999,
    "REV_AT_EPOCH": 29168,
    "BSTAR": 7.0288e-05,
    "MEAN_MOTION_DOT": 7.66e-06,
    "MEAN_MOTION_DDOT": 0
  },
  {
    "OBJECT_NAME": "STARLINK-1272",
    "OBJECT_ID": "2020-019AC",
    "EPOCH": "2025-06-28T10:25:07.342464",
    "MEAN_MOTION": 15.0639443,
    "ECCENTRICITY": 0.0001216,
    "INCLINATION": 53.0543,
    "RA_OF_ASC_NODE": 208.0158,
    "ARG_OF_PERICENTER": 87.6387,
    "MEAN_ANOMALY": 272.4741,
    "EPHEMERIS_TYPE": 0,
    "CLASSIFICATION_TYPE": "U",
    "NORAD_CAT_ID": 45386,
    "ELEMENT_SET_NO": 999,
    "REV_AT_EPOCH": 29168,
    "BSTAR": 9.6644e-06,
    "MEAN_MOTION_DOT": -1.37e-06,
    "MEAN_MOTION_DDOT": 0
  },
  {
    "OBJECT_NAME": "STARLINK-1274",
    "OBJECT_ID": "2020-019AD",
    "EPOCH": "2025-06-28T20:00:01.999872",
    "MEAN_MOTION": 15.12095506,
    "ECCENTRICITY": 0.0001628,
    "INCLINATION": 53.0519,
    "RA_OF_ASC_NODE": 206.1494,
    "ARG_OF_PERICENTER": 40.6202,
    "MEAN_ANOMALY": 244.1778,
    "EPHEMERIS_TYPE": 0,
    "CLASSIFICATION_TYPE": "U",
    "NORAD_CAT_ID": 45387,
    "ELEMENT_SET_NO": 999,
    "REV_AT_EPOCH": 29172,
    "BSTAR": 0.0017549,
    "MEAN_MOTION_DOT": 0.00030392,
    "MEAN_MOTION_DDOT": 0
  },
  {
    "OBJECT_NAME": "STARLINK-1280",
    "OBJECT_ID": "2020-019AE",
    "EPOCH": "2025-06-28T19:45:06.171840",
    "MEAN_MOTION": 15.06406021,
    "ECCENTRICITY": 0.0001456,
    "INCLINATION": 53.0536,
    "RA_OF_ASC_NODE": 226.2728,
    "ARG_OF_PERICENTER": 58.6027,
    "MEAN_ANOMALY": 301.5104,
    "EPHEMERIS_TYPE": 0,
    "CLASSIFICATION_TYPE": "U",
    "NORAD_CAT_ID": 45388,
    "ELEMENT_SET_NO": 999,
    "REV_AT_EPOCH": 29146,
    "BSTAR": 9.1579e-05,
    "MEAN_MOTION_DOT": 1.083e-05,
    "MEAN_MOTION_DDOT": 0
  },
  {
    "OBJECT_NAME": "STARLINK-1283",
    "OBJECT_ID": "2020-019AF",
    "EPOCH": "2025-06-28T09:42:40.991904",
    "MEAN_MOTION": 15.06394213,
    "ECCENTRICITY": 0.0001245,
    "INCLINATION": 53.0543,
    "RA_OF_ASC_NODE": 208.146,
    "ARG_OF_PERICENTER": 87.3391,
    "MEAN_ANOMALY": 272.774,
    "EPHEMERIS_TYPE": 0,
    "CLASSIFICATION_TYPE": "U",
    "NORAD_CAT_ID": 45389,
    "ELEMENT_SET_NO": 999,
    "REV_AT_EPOCH": 29168,
    "BSTAR": 0.00012727,
    "MEAN_MOTION_DOT": 1.614e-05,
    "MEAN_MOTION_DDOT": 0
  },
  {
    "OBJECT_NAME": "STARLINK-1284",
    "OBJECT_ID": "2020-019AG",
    "EPOCH": "2025-06-28T09:05:30.939648",
    "MEAN_MOTION": 15.06395584,
    "ECCENTRICITY": 0.0001213,
    "INCLINATION": 53.0541,
    "RA_OF_ASC_NODE": 208.2625,
    "ARG_OF_PERICENTER": 79.5407,
    "MEAN_ANOMALY": 280.5718,
    "EPHEMERIS_TYPE": 0,
    "CLASSIFICATION_TYPE": "U",
    "NORAD_CAT_ID": 45390,
    "ELEMENT_SET_NO": 999,
    "REV_AT_EPOCH": 29167,
    "BSTAR": -4.9759e-05,
    "MEAN_MOTION_DOT": -1.022e-05,
    "MEAN_MOTION_DDOT": 0
  },
  {
    "OBJECT_NAME": "STARLINK-1292",
    "OBJECT_ID": "2020-019AL",
    "EPOCH": "2025-06-28T12:14:31.056288",
    "MEAN_MOTION": 15.08027864,
    "ECCENTRICITY": 0.0001425,
    "INCLINATION": 53.0527,
    "RA_OF_ASC_NODE": 207.5829,
    "ARG_OF_PERICENTER": 56.0051,
    "MEAN_ANOMALY": 304.1074,
    "EPHEMERIS_TYPE": 0,
    "CLASSIFICATION_TYPE": "U",
    "NORAD_CAT_ID": 45394,
    "ELEMENT_SET_NO": 999,
    "REV_AT_EPOCH": 29143,
    "BSTAR": -7.9509e-05,
    "MEAN_MOTION_DOT": -1.524e-05,
    "MEAN_MOTION_DDOT": 0
  },
  {
    "OBJECT_NAME": "STARLINK-1297",
    "OBJECT_ID": "2020-019AM",
    "EPOCH": "2025-06-28T09:58:35.018112",
    "MEAN_MOTION": 15.06399327,
    "ECCENTRICITY": 0.0001127,
    "INCLINATION": 53.0539,
    "RA_OF_ASC_NODE": 208.0981,
    "ARG_OF_PERICENTER": 84.9728,
    "MEAN_ANOMALY": 275.1389,
    "EPHEMERIS_TYPE": 0,
    "CLASSIFICATION_TYPE": "U",
    "NORAD_CAT_ID": 45395,
    "ELEMENT_SET_NO": 999,
    "REV_AT_EPOCH": 29086,
    "BSTAR": 3.7691e-05,
    "MEAN_MOTION_DOT": 2.8e-06,
    "MEAN_MOTION_DDOT": 0
  },
  {
    "OBJECT_NAME": "STARLINK-1307",
    "OBJECT_ID": "2020-019AP",
    "EPOCH": "2025-06-28T09:47:58.386624",
    "MEAN_MOTION": 15.06397134,
    "ECCENTRICITY": 0.0001169,
    "INCLINATION": 53.0538,
    "RA_OF_ASC_NODE": 208.13,
    "ARG_OF_PERICENTER": 85.0547,
    "MEAN_ANOMALY": 275.0576,
    "EPHEMERIS_TYPE": 0,
    "CLASSIFICATION_TYPE": "U",
    "NORAD_CAT_ID": 45397,
    "ELEMENT_SET_NO": 999,
    "REV_AT_EPOCH": 29150,
    "BSTAR": 9.4665e-05,
    "MEAN_MOTION_DOT": 1.129e-05,
    "MEAN_MOTION_DDOT": 0
  },
  {
    "OBJECT_NAME": "STARLINK-1312",
    "OBJECT_ID": "2020-019AQ",
    "EPOCH": "2025-06-28T01:57:07.226496",
    "MEAN_MOTION": 15.12123122,
    "ECCENTRICITY": 2.39e-05,
    "INCLINATION": 53.053,
    "RA_OF_ASC_NODE": 209.0299,
    "ARG_OF_PERICENTER": 37.9487,
    "MEAN_ANOMALY": 322.1521,
    "EPHEMERIS_TYPE": 0,
    "CLASSIFICATION_TYPE": "U",
    "NORAD_CAT_ID": 45398,
    "ELEMENT_SET_NO": 999,
    "REV_AT_EPOCH": 29139,
    "BSTAR": -8.3575e-05,
    "MEAN_MOTION_DOT": -1.753e-05,
    "MEAN_MOTION_DDOT": 0
  },
  {
    "OBJECT_NAME": "STARLINK-1255",
    "OBJECT_ID": "2020-019AR",
    "EPOCH": "2025-06-28T09:01:31.865664",
    "MEAN_MOTION": 15.06397014,
    "ECCENTRICITY": 0.0001076,
    "INCLINATION": 53.0535,
    "RA_OF_ASC_NODE": 198.2783,
    "ARG_OF_PERICENTER": 80.1549,
    "MEAN_ANOMALY": 279.9561,
    "EPHEMERIS_TYPE": 0,
    "CLASSIFICATION_TYPE": "U",
    "NORAD_CAT_ID": 45399,
    "ELEMENT_SET_NO": 999,
    "REV_AT_EPOCH": 29162,
    "BSTAR": 5.7145e-05,
    "MEAN_MOTION_DOT": 5.7e-06,
    "MEAN_MOTION_DDOT": 0
  },
  {
    "OBJECT_NAME": "STARLINK-1259",
    "OBJECT_ID": "2020-019AV",
    "EPOCH": "2025-06-28T10:05:00.833856",
    "MEAN_MOTION": 15.23530555,
    "ECCENTRICITY": 0.0001033,
    "INCLINATION": 53.0509,
    "RA_OF_ASC_NODE": 196.9143,
    "ARG_OF_PERICENTER": 92.6259,
    "MEAN_ANOMALY": 267.4855,
    "EPHEMERIS_TYPE": 0,
    "CLASSIFICATION_TYPE": "U",
    "NORAD_CAT_ID": 45403,
    "ELEMENT_SET_NO": 999,
    "REV_AT_EPOCH": 29164,
    "BSTAR": 4.8642e-05,
    "MEAN_MOTION_DOT": 8.43e-06,
    "MEAN_MOTION_DDOT": 0
  }
]