STARLINK-1258           
1 45381U 20019X   25179.22681305  .00096524  00000+0  10219-2 0  9994
2 45381  53.0520 197.3656 0002894 356.9333   3.1663 15.63384127291810
STARLINK-1266           
1 45383U 20019Z   25179.50785057  .00001358  00000+0  11003-3 0  9990
2 45383  53.0530 207.6852 0001306  89.1268 270.9870 15.06397504291695
STARLINK-1267           
1 45384U 20019AA  25179.49317083  .00000766  00000+0  70288-4 0  9992
2 45384  53.0538 208.4074 0001022  78.4290 281.6814 15.06395810291684
STARLINK-1272           
1 45386U 20019AC  25179.43411276 -.00000137  00000+0  96644-5 0  9995
2 45386  53.0543 208.0158 0001216  87.6387 272.4741 15.06394430291689
STARLINK-1274           
1 45387U 20019AD  25179.83335648  .00030392  00000+0  17549-2 0  9997
2 45387  53.0519 206.1494 0001628  40.6202 244.1778 15.12095506291727
STARLINK-1280           
1 45388U 20019AE  25179.82298810  .00001083  00000+0  91579-4 0  9998
2 45388  53.0536 226.2728 0001456  58.6027 301.5104 15.06406021291466
STARLINK-1283           
1 45389U 20019AF  25179.40464111  .00001614  00000+0  12727-3 0  9999
2 45389  53.0543 208.1460 0001245  87.3391 272.7740 15.06394213291684
STARLINK-1284           
1 45390U 20019AG  25179.37883032 -.00001022  00000+0 -49759-4 0  9995
2 45390  53.0541 208.2625 0001213  79.5407 280.5718 15.06395584291677
STARLINK-1292           
1 45394U 20019AL  25179.51008167 -.00001524  00000+0 -79509-4 0  9996
2 45394  53.0527 207.5829 0001425  56.0051 304.1074 15.08027864291430
STARLINK-1297           
1 45395U 20019AM  25179.41568308  .00000280  00000+0  37691-4 0  9996
2 45395  53.0539 208.0981 0001127  84.9728 275.1389 15.06399327290865
STARLINK-1307           
1 45397U 20019AP  25179.40831466  .00001129  00000+0  94665-4 0  9992
2 45397  53.0538 208.1300 0001169  85.0547 275.0576 15.06397134291502
STARLINK-1312           
1 45398U 20019AQ  25179.08133364 -.00001753  00000+0 -83575-4 0  9992
2 45398  53.0530 209.0299 0000239  37.9487 322.1521 15.12123122291390
STARLINK-1255           
1 45399U 20019AR  25179.37606326  .00000570  00000+0  57145-4 0  9996
2 45399  53.0535 198.2783 0001076  80.1549 279.9561 15.06397014291627
STARLINK-1259           
1 45403U 20019AV  25179.42014854  .00000843  00000+0  48642-4 0  9992
2 45403  53.0509 196.9143 0001033  92.6259 267.4855 15.23530555291646
